{
  "type": "FeatureCollection",
  "features": [
    {
      "type": "Feature",
      "properties": {
        "norad_id": 38250,
        "name": "BEIDOU-2 M3 (C11)",
        "group": "beidou",
        "lat": -40.79402147040517,
        "lon": -84.28094098237834,
        "alt_km": 21476.411948999306,
        "timestamp": "2025-12-03T15:48:03.337267+00:00",
        "meta_object_name": "BEIDOU-2 M3 (C11)",
        "meta_object_id": "2012-018A",
        "meta_epoch": "2025-12-01T01:13:35.126400",
        "meta_mean_motion": 1.86229725,
        "meta_eccentricity": 0.00245382,
        "meta_inclination": 55.9302,
        "meta_ra_of_asc_node": 311.5507,
        "meta_arg_of_pericenter": 273.3676,
        "meta_mean_anomaly": 86.348,
        "meta_ephemeris_type": 0,
        "meta_classification_type": "U",
        "meta_norad_cat_id": 38250,
        "meta_element_set_no": 999,
        "meta_rev_at_epoch": 9225,
        "meta_bstar": 0,
        "meta_mean_motion_dot": -5.3e-07,
        "meta_mean_motion_ddot": 0,
        "tle_line1": "1 38250U 12018A   25335.05110100 -.00000053  00000+0  00000+0 0  9993",
        "tle_line2": "2 38250  55.9302 311.5507 0024538 273.3676  86.3480  1.86229725 92251"
      },
      "geometry": {
        "type": "Point",
        "coordinates": [
          -84.28094098237834,
          -40.79402147040517
        ]
      }
    },
    {
      "type": "Feature",
      "properties": {
        "norad_id": 38251,
        "name": "BEIDOU-2 M4 (C12)",
        "group": "beidou",
        "lat": -5.29565646168399,
        "lon": -52.9353303024111,
        "alt_km": 21519.355613326297,
        "timestamp": "2025-12-03T15:48:03.337277+00:00",
        "meta_object_name": "BEIDOU-2 M4 (C12)",
        "meta_object_id": "2012-018B",
        "meta_epoch": "2025-11-30T23:35:43.237248",
        "meta_mean_motion": 1.86229405,
        "meta_eccentricity": 0.00156645,
        "meta_inclination": 55.8317,
        "meta_ra_of_asc_node": 310.7829,
        "meta_arg_of_pericenter": 276.4205,
        "meta_mean_anomaly": 83.3972,
        "meta_ephemeris_type": 0,
        "meta_classification_type": "U",
        "meta_norad_cat_id": 38251,
        "meta_element_set_no": 999,
        "meta_rev_at_epoch": 9225,
        "meta_bstar": 0,
        "meta_mean_motion_dot": -5.3e-07,
        "meta_mean_motion_ddot": 0,
        "tle_line1": "1 38251U 12018B   25334.98313932 -.00000053  00000+0  00000+0 0  9993",
        "tle_line2": "2 38251  55.8317 310.7829 0015664 276.4205  83.3972  1.86229405 92255"
      },
      "geometry": {
        "type": "Point",
        "coordinates": [
          -52.9353303024111,
          -5.29565646168399
        ]
      }
    },
    {
      "type": "Feature",
      "properties": {
        "norad_id": 38775,
        "name": "BEIDOU-2 M6 (C14)",
        "group": "beidou",
        "lat": -6.128561261857631,
        "lon": -106.53795639990739,
        "alt_km": 21557.563499452277,
        "timestamp": "2025-12-03T15:48:03.337287+00:00",
        "meta_object_name": "BEIDOU-2 M6 (C14)",
        "meta_object_id": "2012-050B",
        "meta_epoch": "2025-12-01T18:25:55.892928",
        "meta_mean_motion": 1.86230731,
        "meta_eccentricity": 0.0010865,
        "meta_inclination": 56.3691,
        "meta_ra_of_asc_node": 69.4317,
        "meta_arg_of_pericenter": 346.4712,
        "meta_mean_anomaly": 13.5024,
        "meta_ephemeris_type": 0,
        "meta_classification_type": "U",
        "meta_norad_cat_id": 38775,
        "meta_element_set_no": 999,
        "meta_rev_at_epoch": 8963,
        "meta_bstar": 0,
        "meta_mean_motion_dot": -4.3e-07,
        "meta_mean_motion_ddot": 0,
        "tle_line1": "1 38775U 12050B   25335.76800802 -.00000043  00000+0  00000+0 0  9993",
        "tle_line2": "2 38775  56.3691  69.4317 0010865 346.4712  13.5024  1.86230731 89631"
      },
      "geometry": {
        "type": "Point",
        "coordinates": [
          -106.53795639990739,
          -6.128561261857631
        ]
      }
    },
    {
      "type": "Feature",
      "properties": {
        "norad_id": 38953,
        "name": "BEIDOU-2 G6 (C02)",
        "group": "beidou",
        "lat": -2.5884580582045156,
        "lon": 33.89313602995587,
        "alt_km": 35759.47040589447,
        "timestamp": "2025-12-03T15:48:03.337298+00:00",
        "meta_object_name": "BEIDOU-2 G6 (C02)",
        "meta_object_id": "2012-059A",
        "meta_epoch": "2025-12-03T03:52:58.597248",
        "meta_mean_motion": 1.00270749,
        "meta_eccentricity": 0.00073271,
        "meta_inclination": 3.923,
        "meta_ra_of_asc_node": 75.5961,
        "meta_arg_of_pericenter": 290.2404,
        "meta_mean_anomaly": 208.7134,
        "meta_ephemeris_type": 0,
        "meta_classification_type": "U",
        "meta_norad_cat_id": 38953,
        "meta_element_set_no": 999,
        "meta_rev_at_epoch": 4794,
        "meta_bstar": 0,
        "meta_mean_motion_dot": -1.58e-06,
        "meta_mean_motion_ddot": 0,
        "tle_line1": "1 38953U 12059A   25337.16178932 -.00000158  00000+0  00000+0 0  9995",
        "tle_line2": "2 38953   3.9230  75.5961 0007327 290.2404 208.7134  1.00270749 47949"
      },
      "geometry": {
        "type": "Point",
        "coordinates": [
          33.89313602995587,
          -2.5884580582045156
        ]
      }
    },
    {
      "type": "Feature",
      "properties": {
        "norad_id": 40748,
        "name": "BEIDOU-3S M2S (C58)",
        "group": "beidou",
        "lat": -28.722442992519806,
        "lon": 151.28414416073431,
        "alt_km": 21510.06564422278,
        "timestamp": "2025-12-03T15:48:03.337308+00:00",
        "meta_object_name": "BEIDOU-3S M2S (C58)",
        "meta_object_id": "2015-037A",
        "meta_epoch": "2025-12-01T04:31:01.292160",
        "meta_mean_motion": 1.86229002,
        "meta_eccentricity": 0.0012493,
        "meta_inclination": 55.0491,
        "meta_ra_of_asc_node": 308.8604,
        "meta_arg_of_pericenter": 267.0141,
        "meta_mean_anomaly": 92.8367,
        "meta_ephemeris_type": 0,
        "meta_classification_type": "U",
        "meta_norad_cat_id": 40748,
        "meta_element_set_no": 999,
        "meta_rev_at_epoch": 7043,
        "meta_bstar": 0,
        "meta_mean_motion_dot": -5.6e-07,
        "meta_mean_motion_ddot": 0,
        "tle_line1": "1 40748U 15037A   25335.18820940 -.00000056  00000+0  00000+0 0  9999",
        "tle_line2": "2 40748  55.0491 308.8604 0012493 267.0141  92.8367  1.86229002 70437"
      },
      "geometry": {
        "type": "Point",
        "coordinates": [
          151.28414416073431,
          -28.722442992519806
        ]
      }
    },
    {
      "type": "Feature",
      "properties": {
        "norad_id": 40749,
        "name": "BEIDOU-3S M1S (C57)",
        "group": "beidou",
        "lat": 45.79711513741951,
        "lon": -5.28270862148707,
        "alt_km": 21516.39295740556,
        "timestamp": "2025-12-03T15:48:03.337318+00:00",
        "meta_object_name": "BEIDOU-3S M1S (C57)",
        "meta_object_id": "2015-037B",
        "meta_epoch": "2025-12-01T22:57:46.412352",
        "meta_mean_motion": 1.86253762,
        "meta_eccentricity": 0.0003321,
        "meta_inclination": 55.0451,
        "meta_ra_of_asc_node": 308.8236,
        "meta_arg_of_pericenter": 355.9906,
        "meta_mean_anomaly": 3.9975,
        "meta_ephemeris_type": 0,
        "meta_classification_type": "U",
        "meta_norad_cat_id": 40749,
        "meta_element_set_no": 999,
        "meta_rev_at_epoch": 7045,
        "meta_bstar": 0,
        "meta_mean_motion_dot": -6e-07,
        "meta_mean_motion_ddot": 0,
        "tle_line1": "1 40749U 15037B   25335.95678718 -.00000060  00000+0  00000+0 0  9994",
        "tle_line2": "2 40749  55.0451 308.8236 0003321 355.9906   3.9975  1.86253762 70451"
      },
      "geometry": {
        "type": "Point",
        "coordinates": [
          -5.28270862148707,
          45.79711513741951
        ]
      }
    },
    {
      "type": "Feature",
      "properties": {
        "norad_id": 40938,
        "name": "BEIDOU-3S IGSO-2S (C56)",
        "group": "beidou",
        "lat": 26.38737856866781,
        "lon": 56.08660567079007,
        "alt_km": 35597.828350469834,
        "timestamp": "2025-12-03T15:48:03.337328+00:00",
        "meta_object_name": "BEIDOU-3S IGSO-2S (C56)",
        "meta_object_id": "2015-053A",
        "meta_epoch": "2025-12-02T18:11:44.349216",
        "meta_mean_motion": 1.00271748,
        "meta_eccentricity": 0.0061099,
        "meta_inclination": 49.5284,
        "meta_ra_of_asc_node": 261.1253,
        "meta_arg_of_pericenter": 188.6619,
        "meta_mean_anomaly": 351.1283,
        "meta_ephemeris_type": 0,
        "meta_classification_type": "U",
        "meta_norad_cat_id": 40938,
        "meta_element_set_no": 999,
        "meta_rev_at_epoch": 3738,
        "meta_bstar": 0,
        "meta_mean_motion_dot": -1.58e-06,
        "meta_mean_motion_ddot": 0,
        "tle_line1": "1 40938U 15053A   25336.75815219 -.00000158  00000+0  00000+0 0  9998",
        "tle_line2": "2 40938  49.5284 261.1253 0061099 188.6619 351.1283  1.00271748 37386"
      },
      "geometry": {
        "type": "Point",
        "coordinates": [
          56.08660567079007,
          26.38737856866781
        ]
      }
    }
  ]
}